ION SCV-014             
1 62630U 25009X   26068.71776957  .00001812  00000+0  13229-3 0  9995
2 62630  97.4923 144.8636 0006450 112.6479 247.5430 15.04884649 63025
STARLINK-34345          
1 64153U 25112H   26068.71875041  .00005541  00000+0  38783-3 0  9991
2 64153  97.6020 121.5609 0001096 137.5756 222.5555 15.05657866 43315
